"id,name,city,country,address"
"1,Al Noor Traders,Lahore,Pakistan,42 Mall Road"
"2,Al Huda Enterprises,Karachi,Pakistan,18 Clifton Block 5"
"3,Al Rehman Services,Islamabad,Pakistan,22 Jinnah Avenue"
"4,Faizan Corporation,Faisalabad,Pakistan,15 Clock Tower Road"
"5,Rizwan Associates,Multan,Pakistan,9 Cantt Market"
"6,Hassan & Co,Peshawar,Pakistan,21 University Road"
"7,Umar Trading Company,Quetta,Pakistan,7 Jinnah Road"
"8,Al Madina Mart,Sialkot,Pakistan,11 Paris Road"
"9,Iqbal Enterprises,Gujranwala,Pakistan,33 GT Road"
"10,Usman Solutions,Rawalpindi,Pakistan,14 Murree Road"
"11,Saad Industries,Lahore,Pakistan,88 Gulberg Main Blvd"
"12,Zainab Traders,Karachi,Pakistan,25 Shahrah-e-Faisal"
"13,Mustafa Services,Islamabad,Pakistan,19 Blue Area"
"14,Tariq & Sons,Faisalabad,Pakistan,40 D Ground"
"15,Al Ameen Corporation,Multan,Pakistan,6 Hussain Agahi"
"16,Yasir Enterprises,Peshawar,Pakistan,29 Saddar Road"
"17,Bilal Associates,Quetta,Pakistan,12 Brewery Road"
"18,Al Falah Traders,Sialkot,Pakistan,17 Kashmir Road"
"19,Noman Corporation,Gujranwala,Pakistan,45 Model Town"
"20,Farhan Tech Solutions,Rawalpindi,Pakistan,23 Satellite Town"
"21,Imran Logistics,Lahore,Pakistan,90 Johar Town"
"22,Al Kareem Foods,Karachi,Pakistan,5 Bahadurabad"
"23,Kashif Enterprises,Islamabad,Pakistan,31 G-10 Markaz"
"24,Shahzad Brothers,Faisalabad,Pakistan,10 Susan Road"
"25,Al Saqib Services,Multan,Pakistan,27 Bosan Road"
"26,Adeel Traders,Peshawar,Pakistan,8 Khyber Bazaar"
"27,Hashim Corporation,Quetta,Pakistan,19 Samungli Road"
"28,Al Usman Exports,Sialkot,Pakistan,60 Defence Road"
"29,Salman & Co,Gujranwala,Pakistan,12 Peoples Colony"
"30,Kamran Enterprises,Rawalpindi,Pakistan,55 Chaklala"
"31,Al Rahim Builders,Lahore,Pakistan,77 DHA Phase 5"
"32,Hamza Electronics,Karachi,Pakistan,9 Saddar Market"
"33,Furqan Solutions,Islamabad,Pakistan,44 I-8 Markaz"
"34,Adnan Traders,Faisalabad,Pakistan,36 Canal Road"
"35,Al Tayyab Foods,Multan,Pakistan,14 Shujabad Road"
"36,Muneeb Services,Peshawar,Pakistan,26 Hayatabad"
"37,Arslan Enterprises,Quetta,Pakistan,5 Airport Road"
"38,Al Haseeb Traders,Sialkot,Pakistan,22 Ugoki Road"
"39,Shafiq Corporation,Gujranwala,Pakistan,18 Satellite Town"
"40,Waqas Technologies,Rawalpindi,Pakistan,61 Bahria Town"
"41,Al Salman Textiles,Lahore,Pakistan,101 Ichhra Road"
"42,Samiullah Traders,Karachi,Pakistan,20 Korangi Industrial"
"43,Al Bilal Services,Islamabad,Pakistan,16 F-11 Markaz"
"44,Naveed & Sons,Faisalabad,Pakistan,29 Jaranwala Road"
"45,Al Muqaddas Mart,Multan,Pakistan,8 Old Shujaabad Rd"
"46,Rehan Enterprises,Peshawar,Pakistan,35 Ring Road"
"47,Al Zubair Corporation,Quetta,Pakistan,13 Prince Road"
"48,Fahad Traders,Sialkot,Pakistan,48 Cantt Area"
"49,Junaid Solutions,Gujranwala,Pakistan,70 Civil Lines"
"50,Al Danish Group,Rawalpindi,Pakistan,90 PWD Housing"
"51,Azhar Enterprises,Lahore,Pakistan,56 Township"
"52,Al Yousaf Foods,Karachi,Pakistan,32 North Nazimabad"
"53,Sameer Technologies,Islamabad,Pakistan,28 H-13"
"54,Al Farooq Traders,Faisalabad,Pakistan,17 Madina Town"
"55,Shahmeer Services,Multan,Pakistan,41 Vehari Road"
